[
    {
        "Altitude(m)": 624790.8131346494,
        "Argument of Periapsis(deg)": 0.0,
        "Eccentricity": 0.0,
        "Inclination(deg)": 60.0,
        "Latitude(deg)": -59.14717038120261,
        "Longitude(deg)": -8.965211623883063,
        "Mean Anomaly(deg)": -81.81819999999999,
        "RAAN(deg)": 165.0,
        "Satellite Name": "Test1 743",
        "Satellite Number": 743,
        "Semi-Major Axis(m)": 6980739.136638005,
        "Time(s)": 0
    },
    {
        "Altitude(m)": 624737.4675454955,
        "Argument of Periapsis(deg)": 0.00010418945913296404,
        "Eccentricity": 0.0,
        "Inclination(deg)": 60.0,
        "Latitude(deg)": -58.99462338030496,
        "Longitude(deg)": -7.845708945823573,
        "Mean Anomaly(deg)": -81.19809385453813,
        "RAAN(deg)": 164.99957995086024,
        "Satellite Name": "Test1 743",
        "Satellite Number": 743,
        "Semi-Major Axis(m)": 6980739.136638005,
        "Time(s)": 10
    }
]